NORAD_CAT_ID,OBJECT_NAME,OBJECT_TYPE,EPOCH,MEAN_MOTION,ECCENTRICITY,INCLINATION,RA_OF_ASC_NODE,ARG_OF_PERICENTER,MEAN_ANOMALY,BSTAR,MEAN_MOTION_DOT,MEAN_MOTION_DDOT,TLE_LINE0,TLE_LINE1,TLE_LINE2,SEMIMAJOR_AXIS,PERIOD,APOGEE,PERIGEE,DECAYED
52566.0,STARLINK-3938,PAYLOAD,2024-07-08 14:14:40,15.08870301,0.0001467,53.2186,348.4645,73.8531,286.2622,-0.00040319,-6.704e-05,0.0,0 STARLINK-3938,1 52566U 22051AK  24190.59352001 -.00006704  00000-0 -40319-3 0  9994,2 52566  53.2186 348.4645 0001467  73.8531 286.2622 15.08870301119428,6917.788,95.436,540.668,538.638,0.0
52566.0,STARLINK-3938,PAYLOAD,2024-07-08 20:36:13,15.08844365,0.0001186,53.2187,347.273,96.2794,263.8334,0.00011145,1.487e-05,0.0,0 STARLINK-3938,1 52566U 22051AK  24190.85848666  .00001487  00000-0  11145-3 0  9996,2 52566  53.2187 347.2730 0001186  96.2794 263.8334 15.08844365119533,6917.867,95.437,540.553,538.912,0.0
52566.0,STARLINK-3938,PAYLOAD,2024-07-09 10:54:41,15.08841858,0.0001606,53.219,344.5971,89.2847,270.8329,3.8894e-05,3.31e-06,0.0,0 STARLINK-3938,1 52566U 22051AK  24191.45465088  .00000331  00000-0  38894-4 0  9994,2 52566  53.2190 344.5971 0001606  89.2847 270.8329 15.08841858119628,6917.875,95.437,540.851,538.629,0.0
52566.0,STARLINK-3938,PAYLOAD,2024-07-09 14:05:28,15.08838744,0.0001307,53.219,344.005,92.3611,267.7531,2.4697e-05,1.05e-06,0.0,0 STARLINK-3938,1 52566U 22051AK  24191.58713360  .00000105  00000-0  24697-4 0  9992,2 52566  53.2190 344.0050 0001307  92.3611 267.7531 15.08838744119577,6917.884,95.438,540.653,538.845,0.0
52566.0,STARLINK-3938,PAYLOAD,2024-07-09 15:40:51,15.0883926,0.0001334,53.2197,343.7075,92.543,267.5715,1.9331e-05,2e-07,0.0,0 STARLINK-3938,1 52566U 22051AK  24191.65337325  .00000020  00000-0  19331-4 0  9998,2 52566  53.2197 343.7075 0001334  92.5430 267.5715 15.08839260119585,6917.883,95.438,540.67,538.825,0.0
52566.0,STARLINK-3938,PAYLOAD,2024-07-10 09:10:05,15.0883883,0.000138,53.2198,340.4375,110.6278,249.4863,5.4917e-05,5.86e-06,0.0,0 STARLINK-3938,1 52566U 22051AK  24192.38201325  .00000586  00000-0  54917-4 0  9995,2 52566  53.2198 340.4375 0001380 110.6278 249.4863 15.08838830119693,6917.884,95.438,540.704,538.794,0.0
52566.0,STARLINK-3938,PAYLOAD,2024-07-10 20:17:47,15.08844297,0.0001436,53.2202,338.3547,92.9186,267.197,2.952e-05,1.82e-06,0.0,0 STARLINK-3938,1 52566U 22051AK  24192.84569136  .00000182  00000-0  29520-4 0  9997,2 52566  53.2202 338.3547 0001436  92.9186 267.1970 15.08844297119834,6917.867,95.437,540.726,538.739,0.0
52566.0,STARLINK-3938,PAYLOAD,2024-07-11 13:47:02,15.0884007,0.0001634,53.2209,335.0841,90.5901,269.5279,0.00010907,1.448e-05,0.0,0 STARLINK-3938,1 52566U 22051AK  24193.57433353  .00001448  00000-0  10907-3 0  9993,2 52566  53.2209 335.0841 0001634  90.5901 269.5279 15.08840070119878,6917.88,95.438,540.876,538.615,0.0
52566.0,STARLINK-3938,PAYLOAD,2024-07-12 02:30:07,15.08839214,0.0001243,53.2211,332.7054,85.2649,274.8485,6.6809e-05,7.76e-06,0.0,0 STARLINK-3938,1 52566U 22051AK  24194.10425390  .00000776  00000-0  66809-4 0  9991,2 52566  53.2211 332.7054 0001243  85.2649 274.8485 15.08839214120022,6917.883,95.438,540.608,538.888,0.0
52566.0,STARLINK-3938,PAYLOAD,2024-07-12 15:13:13,15.08835433,0.0001363,53.2168,330.3254,85.269,274.8458,4.0917e-05,3.63e-06,0.0,0 STARLINK-3938,1 52566U 22051AK  24194.63417940  .00000363  00000-0  40917-4 0  9995,2 52566  53.2168 330.3254 0001363  85.2690 274.8458 15.08835433120038,6917.894,95.438,540.702,538.816,0.0
52566.0,STARLINK-3938,PAYLOAD,2024-07-12 16:48:35,15.08841743,0.0001411,53.2167,330.0273,84.0514,276.0639,9.1834e-05,1.174e-05,0.0,0 STARLINK-3938,1 52566U 22051AK  24194.70041466  .00001174  00000-0  91834-4 0  9994,2 52566  53.2167 330.0273 0001411  84.0514 276.0639 15.08841743120048,6917.875,95.437,540.716,538.764,0.0
52566.0,STARLINK-3938,PAYLOAD,2024-07-13 13:28:36,15.08846531,0.0001191,53.216,326.163,82.0473,278.0654,2.4718e-05,1.06e-06,0.0,0 STARLINK-3938,1 52566U 22051AK  24195.56153139  .00000106  00000-0  24718-4 0  9991,2 52566  53.2160 326.1630 0001191  82.0473 278.0654 15.08846531120242,6917.86,95.437,540.549,538.902,0.0
52566.0,STARLINK-3938,PAYLOAD,2024-07-13 15:03:59,15.08848575,0.0001099,53.2157,325.8647,89.8036,270.3082,5.6336e-05,6.09e-06,0.0,0 STARLINK-3938,1 52566U 22051AK  24195.62776966  .00000609  00000-0  56336-4 0  9996,2 52566  53.2157 325.8647 0001099  89.8036 270.3082 15.08848575120182,6917.854,95.437,540.479,538.959,0.0
52566.0,STARLINK-3938,PAYLOAD,2024-07-13 18:14:45,15.08854723,0.0001221,53.2157,325.2688,93.9039,266.2093,0.00016036,2.266e-05,0.0,0 STARLINK-3938,1 52566U 22051AK  24195.76024619  .00002266  00000-0  16036-3 0  9995,2 52566  53.2157 325.2688 0001221  93.9039 266.2093 15.08854723120208,6917.835,95.437,540.545,538.856,0.0
52566.0,STARLINK-3938,PAYLOAD,2024-07-14 14:54:46,15.08849891,0.0001368,53.2167,321.4032,100.2161,259.8985,0.00022613,3.314e-05,0.0,0 STARLINK-3938,1 52566U 22051AK  24196.62136986  .00003314  00000-0  22613-3 0  9995,2 52566  53.2167 321.4032 0001368 100.2161 259.8985 15.08849891120332,6917.85,95.437,540.662,538.769,0.0
52566.0,STARLINK-3938,PAYLOAD,2024-07-14 18:05:32,15.08855905,0.0001282,53.2164,320.8072,98.2067,261.907,0.00030431,4.561e-05,0.0,0 STARLINK-3938,1 52566U 22051AK  24196.75384619  .00004561  00000-0  30431-3 0  9999,2 52566  53.2164 320.8072 0001282  98.2067 261.9070 15.08855905120424,6917.832,95.437,540.584,538.81,0.0
52566.0,STARLINK-3938,PAYLOAD,2024-07-15 13:10:10,15.08847164,0.0001396,53.2169,317.2355,89.6527,270.4625,0.00023189,3.405e-05,0.0,0 STARLINK-3938,1 52566U 22051AK  24197.54872930  .00003405  00000-0  23189-3 0  9993,2 52566  53.2169 317.2355 0001396  89.6527 270.4625 15.08847164120546,6917.858,95.437,540.689,538.758,0.0
52566.0,STARLINK-3938,PAYLOAD,2024-07-15 14:45:32,15.08853968,0.0001484,53.2154,316.9415,94.0648,266.0513,0.00022533,3.301e-05,0.0,0 STARLINK-3938,1 52566U 22051AK  24197.61496523  .00003301  00000-0  22533-3 0  9998,2 52566  53.2154 316.9415 0001484  94.0648 266.0513 15.08853968120484,6917.838,95.437,540.729,538.676,0.0
52566.0,STARLINK-3938,PAYLOAD,2024-07-16 13:00:57,15.08847135,0.0001384,53.2176,312.7808,98.4776,261.6373,0.00019065,2.748e-05,0.0,0 STARLINK-3938,1 52566U 22051AK  24198.54232912  .00002748  00000-0  19065-3 0  9991,2 52566  53.2176 312.7808 0001384  98.4776 261.6373 15.08847135120694,6917.859,95.437,540.681,538.766,0.0
52566.0,STARLINK-3938,PAYLOAD,2024-07-16 14:36:20,15.08849237,0.0001399,53.2168,312.4807,103.9104,256.2044,0.00027737,4.13e-05,0.0,0 STARLINK-3938,1 52566U 22051AK  24198.60856656  .00004130  00000-0  27737-3 0  9997,2 52566  53.2168 312.4807 0001399 103.9104 256.2044 15.08849237120638,6917.852,95.437,540.685,538.749,0.0
52566.0,STARLINK-3938,PAYLOAD,2024-07-17 12:51:45,15.08828587,0.0001393,53.2167,308.3178,97.001,263.1141,0.00018595,2.672e-05,0.0,0 STARLINK-3938,1 52566U 22051AK  24199.53593916  .00002672  00000-0  18595-3 0  9998,2 52566  53.2167 308.3178 0001393  97.0010 263.1141 15.08828587120848,6917.915,95.438,540.744,538.817,0.0
52566.0,STARLINK-3938,PAYLOAD,2024-07-17 14:27:08,15.08831918,0.000133,53.2172,308.0222,87.372,272.7424,0.00031213,4.682e-05,0.0,0 STARLINK-3938,1 52566U 22051AK  24199.60217949  .00004682  00000-0  31213-3 0  9990,2 52566  53.2172 308.0222 0001330  87.3720 272.7424 15.08831918120787,6917.905,95.438,540.69,538.85,0.0
52566.0,STARLINK-3938,PAYLOAD,2024-07-18 14:17:55,15.08852848,0.0001404,53.2174,303.5658,89.5481,270.5672,0.00084545,0.00013198,0.0,0 STARLINK-3938,1 52566U 22051AK  24200.59578203  .00013198  00000-0  84545-3 0  9992,2 52566  53.2174 303.5658 0001404  89.5481 270.5672 15.08852848120935,6917.841,95.437,540.677,538.735,0.0
52566.0,STARLINK-3938,PAYLOAD,2024-07-19 12:33:19,15.08848164,0.000127,53.2162,299.3993,82.9191,277.1946,0.00034267,5.171e-05,0.0,0 STARLINK-3938,1 52566U 22051AK  24201.52314207  .00005171  00000-0  34267-3 0  9996,2 52566  53.2162 299.3993 0001270  82.9191 277.1946 15.08848164121149,6917.855,95.437,540.599,538.842,0.0
52566.0,STARLINK-3938,PAYLOAD,2024-07-19 14:08:42,15.08851618,0.0001312,53.2159,299.102,76.0353,284.0785,0.00044962,6.877e-05,0.0,0 STARLINK-3938,1 52566U 22051AK  24201.58938161  .00006877  00000-0  44962-3 0  9990,2 52566  53.2159 299.1020 0001312  76.0353 284.0785 15.08851618121084,6917.845,95.437,540.617,538.802,0.0
52566.0,STARLINK-3938,PAYLOAD,2024-07-20 12:24:06,15.08847158,0.0001251,53.2149,294.9395,101.5474,258.5659,0.00041112,6.262e-05,0.0,0 STARLINK-3938,1 52566U 22051AK  24202.51673914  .00006262  00000-0  41112-3 0  9998,2 52566  53.2149 294.9395 0001251 101.5474 258.5659 15.08847158121294,6917.859,95.437,540.589,538.858,0.0
52566.0,STARLINK-3938,PAYLOAD,2024-07-21 12:14:53,15.08848319,0.0001523,53.2156,290.4792,82.5318,277.5847,0.00021362,3.114e-05,0.0,0 STARLINK-3938,1 52566U 22051AK  24203.51033846  .00003114  00000-0  21362-3 0  9991,2 52566  53.2156 290.4792 0001523  82.5318 277.5847 15.08848319121448,6917.855,95.437,540.774,538.666,0.0
52566.0,STARLINK-3938,PAYLOAD,2024-07-22 10:30:17,15.0883683,0.000157,53.2139,286.3171,75.9183,284.1983,7.2675e-05,8.69e-06,0.0,0 STARLINK-3938,1 52566U 22051AK  24204.43770420  .00000869  00000-0  72675-4 0  9997,2 52566  53.2139 286.3171 0001570  75.9183 284.1983 15.08836830121587,6917.89,95.438,540.841,538.669,0.0
52566.0,STARLINK-3938,PAYLOAD,2024-07-22 15:16:26,15.08844107,0.00017,53.2147,285.4212,113.4222,246.6949,0.00013046,1.789e-05,0.0,0 STARLINK-3938,1 52566U 22051AK  24204.63641989  .00001789  00000-0  13046-3 0  9994,2 52566  53.2147 285.4212 0001700 113.4222 246.6949 15.08844107121546,6917.868,95.437,540.909,538.557,0.0
52566.0,STARLINK-3938,PAYLOAD,2024-07-23 11:56:27,15.08848292,0.0001375,53.2155,281.5577,80.3454,279.7694,0.00032756,4.93e-05,0.0,0 STARLINK-3938,1 52566U 22051AK  24205.49754193  .00004930  00000-0  32756-3 0  9991,2 52566  53.2155 281.5577 0001375  80.3454 279.7694 15.08848292121670,6917.855,95.437,540.671,538.769,0.0
